STARLINK-36616          
1 67672U 26022AA  26063.04330706  .00298428  00000+0  19207-2 0  9993
2 67672  97.2827  96.7945 0002148 142.2003 217.9413 15.75332365  4665
COSMOS 2600             
1 67674U 26023A   26063.15172419  .00093011  00000+0  43269-3 0  9990
2 67674  96.6441 138.9693 0002312 357.4003   2.7255 15.83116266  4173
2026-023B               
1 67675U 26023B   26063.20092576  .00018281  00000+0  77846-3 0  9996
2 67675  96.6369 136.7845 0019214 150.5655 209.6670 15.22844683  4029
2026-023C               
1 67676U 26023C   26063.19962060  .00016689  00000+0  70852-3 0  9999
2 67676  96.6404 136.8065 0020272 140.9915 219.2791 15.22944066  4187
2026-023D               
1 67677U 26023D   26063.20207463  .00017331  00000+0  73946-3 0  9993
2 67677  96.6435 136.7949 0020486 145.8281 214.4281 15.22764447  4015
2026-023E               
1 67678U 26023E   26063.20006071  .00020650  00000+0  87595-3 0  9999
2 67678  96.6328 136.7761 0020245 145.2781 214.9783 15.22934188  4014
2026-023F               
1 67679U 26023F   26063.19758763  .00019992  00000+0  84350-3 0  9993
2 67679  96.6337 139.2763 0022135 140.1904 220.0963 15.23083787  4004
2026-023G               
1 67680U 26023G   26063.19828198  .00020114  00000+0  84877-3 0  9997
2 67680  96.6264 139.2587 0023655 136.7329 223.5773 15.23044738  4009
2026-023H               
1 67681U 26023H   26063.19838196  .00016637  00000+0  70415-3 0  9995
2 67681  96.6410 139.2893 0023760 136.1613 224.1517 15.22977693  4007
2026-023J               
1 67682U 26023J   26063.19725546  .00020982  00000+0  88415-3 0  9997
2 67682  96.6363 139.2936 0023871 133.0062 227.3183 15.23079755  4007
ISS OBJECT XZ           
1 67683U 98067XZ  26063.12412783  .00048104  00000+0  80590-3 0  9996
2 67683  51.6304  99.4942 0009483 167.0393 193.0841 15.51316710  3921
GXIBA-1                 
1 67684U 98067YA  26062.26849864  .00074906  00000+0  11656-2 0  9990
2 67684  51.6298 103.5313 0010978 154.9471 205.2054 15.53164734  3792
