CCSDS_OMM_VERS = 2.0
CREATION_DATE  = 
ORIGINATOR     = 

OBJECT_NAME    = STARLINK-36616
OBJECT_ID      = 2026-022AA
CENTER_NAME    = EARTH
REF_FRAME      = TEME
TIME_SYSTEM    = UTC
MEAN_ELEMENT_THEORY = SGP/SGP4

EPOCH          = 2026-03-04T01:02:21.729984
MEAN_MOTION    = 15.75332365
ECCENTRICITY   = .0002148
INCLINATION    = 97.2827
RA_OF_ASC_NODE = 96.7945
ARG_OF_PERICENTER = 142.2003
MEAN_ANOMALY   = 217.9413

EPHEMERIS_TYPE = 0
CLASSIFICATION_TYPE = U
NORAD_CAT_ID   = 67672
ELEMENT_SET_NO = 999
REV_AT_EPOCH   = 466
BSTAR          = .19207E-2
MEAN_MOTION_DOT = .298428E-2
MEAN_MOTION_DDOT = 0

CCSDS_OMM_VERS = 2.0
CREATION_DATE  = 
ORIGINATOR     = 

OBJECT_NAME    = COSMOS 2600
OBJECT_ID      = 2026-023A
CENTER_NAME    = EARTH
REF_FRAME      = TEME
TIME_SYSTEM    = UTC
MEAN_ELEMENT_THEORY = SGP/SGP4

EPOCH          = 2026-03-04T03:38:28.970016
MEAN_MOTION    = 15.83116266
ECCENTRICITY   = .0002312
INCLINATION    = 96.6441
RA_OF_ASC_NODE = 138.9693
ARG_OF_PERICENTER = 357.4003
MEAN_ANOMALY   = 2.7255

EPHEMERIS_TYPE = 0
CLASSIFICATION_TYPE = U
NORAD_CAT_ID   = 67674
ELEMENT_SET_NO = 999
REV_AT_EPOCH   = 417
BSTAR          = .43269E-3
MEAN_MOTION_DOT = .93011E-3
MEAN_MOTION_DDOT = 0

CCSDS_OMM_VERS = 2.0
CREATION_DATE  = 
ORIGINATOR     = 

OBJECT_NAME    = 2026-023B
OBJECT_ID      = 2026-023B
CENTER_NAME    = EARTH
REF_FRAME      = TEME
TIME_SYSTEM    = UTC
MEAN_ELEMENT_THEORY = SGP/SGP4

EPOCH          = 2026-03-04T04:49:19.985664
MEAN_MOTION    = 15.22844683
ECCENTRICITY   = .0019214
INCLINATION    = 96.6369
RA_OF_ASC_NODE = 136.7845
ARG_OF_PERICENTER = 150.5655
MEAN_ANOMALY   = 209.6670

EPHEMERIS_TYPE = 0
CLASSIFICATION_TYPE = U
NORAD_CAT_ID   = 67675
ELEMENT_SET_NO = 999
REV_AT_EPOCH   = 402
BSTAR          = .77846E-3
MEAN_MOTION_DOT = .18281E-3
MEAN_MOTION_DDOT = 0

CCSDS_OMM_VERS = 2.0
CREATION_DATE  = 
ORIGINATOR     = 

OBJECT_NAME    = 2026-023C
OBJECT_ID      = 2026-023C
CENTER_NAME    = EARTH
REF_FRAME      = TEME
TIME_SYSTEM    = UTC
MEAN_ELEMENT_THEORY = SGP/SGP4

EPOCH          = 2026-03-04T04:47:27.219840
MEAN_MOTION    = 15.22944066
ECCENTRICITY   = .0020272
INCLINATION    = 96.6404
RA_OF_ASC_NODE = 136.8065
ARG_OF_PERICENTER = 140.9915
MEAN_ANOMALY   = 219.2791

EPHEMERIS_TYPE = 0
CLASSIFICATION_TYPE = U
NORAD_CAT_ID   = 67676
ELEMENT_SET_NO = 999
REV_AT_EPOCH   = 418
BSTAR          = .70852E-3
MEAN_MOTION_DOT = .16689E-3
MEAN_MOTION_DDOT = 0

CCSDS_OMM_VERS = 2.0
CREATION_DATE  = 
ORIGINATOR     = 

OBJECT_NAME    = 2026-023D
OBJECT_ID      = 2026-023D
CENTER_NAME    = EARTH
REF_FRAME      = TEME
TIME_SYSTEM    = UTC
MEAN_ELEMENT_THEORY = SGP/SGP4

EPOCH          = 2026-03-04T04:50:59.248032
MEAN_MOTION    = 15.22764447
ECCENTRICITY   = .0020486
INCLINATION    = 96.6435
RA_OF_ASC_NODE = 136.7949
ARG_OF_PERICENTER = 145.8281
MEAN_ANOMALY   = 214.4281

EPHEMERIS_TYPE = 0
CLASSIFICATION_TYPE = U
NORAD_CAT_ID   = 67677
ELEMENT_SET_NO = 999
REV_AT_EPOCH   = 401
BSTAR          = .73946E-3
MEAN_MOTION_DOT = .17331E-3
MEAN_MOTION_DDOT = 0

CCSDS_OMM_VERS = 2.0
CREATION_DATE  = 
ORIGINATOR     = 

OBJECT_NAME    = 2026-023E
OBJECT_ID      = 2026-023E
CENTER_NAME    = EARTH
REF_FRAME      = TEME
TIME_SYSTEM    = UTC
MEAN_ELEMENT_THEORY = SGP/SGP4

EPOCH          = 2026-03-04T04:48:05.245344
MEAN_MOTION    = 15.22934188
ECCENTRICITY   = .0020245
INCLINATION    = 96.6328
RA_OF_ASC_NODE = 136.7761
ARG_OF_PERICENTER = 145.2781
MEAN_ANOMALY   = 214.9783

EPHEMERIS_TYPE = 0
CLASSIFICATION_TYPE = U
NORAD_CAT_ID   = 67678
ELEMENT_SET_NO = 999
REV_AT_EPOCH   = 401
BSTAR          = .87595E-3
MEAN_MOTION_DOT = .2065E-3
MEAN_MOTION_DDOT = 0

CCSDS_OMM_VERS = 2.0
CREATION_DATE  = 
ORIGINATOR     = 

OBJECT_NAME    = 2026-023F
OBJECT_ID      = 2026-023F
CENTER_NAME    = EARTH
REF_FRAME      = TEME
TIME_SYSTEM    = UTC
MEAN_ELEMENT_THEORY = SGP/SGP4

EPOCH          = 2026-03-04T04:44:31.571232
MEAN_MOTION    = 15.23083787
ECCENTRICITY   = .0022135
INCLINATION    = 96.6337
RA_OF_ASC_NODE = 139.2763
ARG_OF_PERICENTER = 140.1904
MEAN_ANOMALY   = 220.0963

EPHEMERIS_TYPE = 0
CLASSIFICATION_TYPE = U
NORAD_CAT_ID   = 67679
ELEMENT_SET_NO = 999
REV_AT_EPOCH   = 400
BSTAR          = .8435E-3
MEAN_MOTION_DOT = .19992E-3
MEAN_MOTION_DDOT = 0

CCSDS_OMM_VERS = 2.0
CREATION_DATE  = 
ORIGINATOR     = 

OBJECT_NAME    = 2026-023G
OBJECT_ID      = 2026-023G
CENTER_NAME    = EARTH
REF_FRAME      = TEME
TIME_SYSTEM    = UTC
MEAN_ELEMENT_THEORY = SGP/SGP4

EPOCH          = 2026-03-04T04:45:31.563072
MEAN_MOTION    = 15.23044738
ECCENTRICITY   = .0023655
INCLINATION    = 96.6264
RA_OF_ASC_NODE = 139.2587
ARG_OF_PERICENTER = 136.7329
MEAN_ANOMALY   = 223.5773

EPHEMERIS_TYPE = 0
CLASSIFICATION_TYPE = U
NORAD_CAT_ID   = 67680
ELEMENT_SET_NO = 999
REV_AT_EPOCH   = 400
BSTAR          = .84877E-3
MEAN_MOTION_DOT = .20114E-3
MEAN_MOTION_DDOT = 0

CCSDS_OMM_VERS = 2.0
CREATION_DATE  = 
ORIGINATOR     = 

OBJECT_NAME    = 2026-023H
OBJECT_ID      = 2026-023H
CENTER_NAME    = EARTH
REF_FRAME      = TEME
TIME_SYSTEM    = UTC
MEAN_ELEMENT_THEORY = SGP/SGP4

EPOCH          = 2026-03-04T04:45:40.201344
MEAN_MOTION    = 15.22977693
ECCENTRICITY   = .002376
INCLINATION    = 96.6410
RA_OF_ASC_NODE = 139.2893
ARG_OF_PERICENTER = 136.1613
MEAN_ANOMALY   = 224.1517

EPHEMERIS_TYPE = 0
CLASSIFICATION_TYPE = U
NORAD_CAT_ID   = 67681
ELEMENT_SET_NO = 999
REV_AT_EPOCH   = 400
BSTAR          = .70415E-3
MEAN_MOTION_DOT = .16637E-3
MEAN_MOTION_DDOT = 0

CCSDS_OMM_VERS = 2.0
CREATION_DATE  = 
ORIGINATOR     = 

OBJECT_NAME    = 2026-023J
OBJECT_ID      = 2026-023J
CENTER_NAME    = EARTH
REF_FRAME      = TEME
TIME_SYSTEM    = UTC
MEAN_ELEMENT_THEORY = SGP/SGP4

EPOCH          = 2026-03-04T04:44:02.871744
MEAN_MOTION    = 15.23079755
ECCENTRICITY   = .0023871
INCLINATION    = 96.6363
RA_OF_ASC_NODE = 139.2936
ARG_OF_PERICENTER = 133.0062
MEAN_ANOMALY   = 227.3183

EPHEMERIS_TYPE = 0
CLASSIFICATION_TYPE = U
NORAD_CAT_ID   = 67682
ELEMENT_SET_NO = 999
REV_AT_EPOCH   = 400
BSTAR          = .88415E-3
MEAN_MOTION_DOT = .20982E-3
MEAN_MOTION_DDOT = 0

CCSDS_OMM_VERS = 2.0
CREATION_DATE  = 
ORIGINATOR     = 

OBJECT_NAME    = ISS OBJECT XZ
OBJECT_ID      = 1998-067XZ
CENTER_NAME    = EARTH
REF_FRAME      = TEME
TIME_SYSTEM    = UTC
MEAN_ELEMENT_THEORY = SGP/SGP4

EPOCH          = 2026-03-04T02:58:44.644512
MEAN_MOTION    = 15.51316710
ECCENTRICITY   = .0009483
INCLINATION    = 51.6304
RA_OF_ASC_NODE = 99.4942
ARG_OF_PERICENTER = 167.0393
MEAN_ANOMALY   = 193.0841

EPHEMERIS_TYPE = 0
CLASSIFICATION_TYPE = U
NORAD_CAT_ID   = 67683
ELEMENT_SET_NO = 999
REV_AT_EPOCH   = 392
BSTAR          = .8059E-3
MEAN_MOTION_DOT = .48104E-3
MEAN_MOTION_DDOT = 0

CCSDS_OMM_VERS = 2.0
CREATION_DATE  = 
ORIGINATOR     = 

OBJECT_NAME    = GXIBA-1
OBJECT_ID      = 1998-067YA
CENTER_NAME    = EARTH
REF_FRAME      = TEME
TIME_SYSTEM    = UTC
MEAN_ELEMENT_THEORY = SGP/SGP4

EPOCH          = 2026-03-03T06:26:38.282496
MEAN_MOTION    = 15.53164734
ECCENTRICITY   = .00109781
INCLINATION    = 51.6298
RA_OF_ASC_NODE = 103.5313
ARG_OF_PERICENTER = 154.9471
MEAN_ANOMALY   = 205.2054

EPHEMERIS_TYPE = 0
CLASSIFICATION_TYPE = U
NORAD_CAT_ID   = 67684
ELEMENT_SET_NO = 999
REV_AT_EPOCH   = 379
BSTAR          = .11656143E-2
MEAN_MOTION_DOT = .74906E-3
MEAN_MOTION_DDOT = 0

